{"fetched_at":"2026-07-11T09:23:59.140Z","source":"https://celestrak.org/NORAD/elements/gp.php?GROUP=planet&FORMAT=JSON","constellation":"superdove","records":[{"OBJECT_NAME":"FLOCK 4H-33","OBJECT_ID":"2025-276BY","EPOCH":"2026-07-09T20:04:10.890624","CLASSIFICATION_TYPE":"U","MEAN_MOTION":15.21147676,"ECCENTRICITY":0.00022913,"INCLINATION":97.4216,"RA_OF_ASC_NODE":264.4028,"ARG_OF_PERICENTER":177.0663,"MEAN_ANOMALY":183.0587,"EPHEMERIS_TYPE":0,"NORAD_CAT_ID":66736,"ELEMENT_SET_NO":999,"REV_AT_EPOCH":3388,"BSTAR":0.00019359587,"MEAN_MOTION_DOT":0.00004242,"MEAN_MOTION_DDOT":0},{"OBJECT_NAME":"FLOCK 4H-34","OBJECT_ID":"2025-276BZ","EPOCH":"2026-07-11T04:53:19.437216","CLASSIFICATION_TYPE":"U","MEAN_MOTION":15.20806076,"ECCENTRICITY":0.0002191,"INCLINATION":97.4234,"RA_OF_ASC_NODE":265.6746,"ARG_OF_PERICENTER":180.6496,"MEAN_ANOMALY":179.4737,"EPHEMERIS_TYPE":0,"NORAD_CAT_ID":66737,"ELEMENT_SET_NO":999,"REV_AT_EPOCH":3333,"BSTAR":0.00020892,"MEAN_MOTION_DOT":0.00004538,"MEAN_MOTION_DDOT":0},{"OBJECT_NAME":"FLOCK 4H-35","OBJECT_ID":"2025-276CA","EPOCH":"2026-07-11T04:18:50.056992","CLASSIFICATION_TYPE":"U","MEAN_MOTION":15.20921769,"ECCENTRICITY":0.0002173,"INCLINATION":97.4193,"RA_OF_ASC_NODE":265.5903,"ARG_OF_PERICENTER":160.542,"MEAN_ANOMALY":199.5899,"EPHEMERIS_TYPE":0,"NORAD_CAT_ID":66738,"ELEMENT_SET_NO":999,"REV_AT_EPOCH":3337,"BSTAR":0.00017009,"MEAN_MOTION_DOT":0.00003694,"MEAN_MOTION_DDOT":0},{"OBJECT_NAME":"FLOCK 4H-36","OBJECT_ID":"2025-276CB","EPOCH":"2026-07-11T02:03:55.986624","CLASSIFICATION_TYPE":"U","MEAN_MOTION":15.20684722,"ECCENTRICITY":0.0001953,"INCLINATION":97.4241,"RA_OF_ASC_NODE":265.5523,"ARG_OF_PERICENTER":195.9327,"MEAN_ANOMALY":164.1847,"EPHEMERIS_TYPE":0,"NORAD_CAT_ID":66739,"ELEMENT_SET_NO":999,"REV_AT_EPOCH":3406,"BSTAR":0.00017621,"MEAN_MOTION_DOT":0.00003803,"MEAN_MOTION_DDOT":0}]}
