FLOCK 4H-33             
1 66736U 25276BY  26190.83623716  .00004242  00000+0  19360-3 0  9997
2 66736  97.4216 264.4028 0002291 177.0663 183.0587 15.21147676 33883
FLOCK 4H-34             
1 66737U 25276BZ  26192.20369719  .00004538  00000+0  20892-3 0  9991
2 66737  97.4234 265.6746 0002191 180.6496 179.4737 15.20806076 33338
FLOCK 4H-35             
1 66738U 25276CA  26192.17974603  .00003694  00000+0  17009-3 0  9990
2 66738  97.4193 265.5903 0002173 160.5420 199.5899 15.20921769 33374
FLOCK 4H-36             
1 66739U 25276CB  26192.08606466  .00003803  00000+0  17621-3 0  9992
2 66739  97.4241 265.5523 0001953 195.9327 164.1847 15.20684722 34063
